STARLINK-31267          
1 59468U 24068P   26067.26591769 -.00000770  00000+0 -18480-4 0  9998
2 59468  43.0021  38.3404 0001137 277.3139  82.7584 15.27568172108355
FLOCK 4G-5              
1 62663U 25009BG  26068.45638436  .00011278  00000+0  40688-3 0  9997
2 62663  97.4058 151.2478 0002094 314.5072  45.5996 15.28679529 63699
